[{"OBJECT_NAME":"OBJECT D","OBJECT_ID":"2025-313D","EPOCH":"2026-03-09T21:56:57.808608","MEAN_MOTION":14.89111186,"ECCENTRICITY":0.01485836,"INCLINATION":97.5765,"RA_OF_ASC_NODE":143.4472,"ARG_OF_PERICENTER":297.1144,"MEAN_ANOMALY":61.4984,"EPHEMERIS_TYPE":0,"CLASSIFICATION_TYPE":"U","NORAD_CAT_ID":67251,"ELEMENT_SET_NO":999,"REV_AT_EPOCH":1062,"BSTAR":0.00021863983,"MEAN_MOTION_DOT":2.471e-5,"MEAN_MOTION_DDOT":0},{"OBJECT_NAME":"DIAPASON (D1-A)","OBJECT_ID":"1966-013A","EPOCH":"2026-03-09T00:43:39.063072","MEAN_MOTION":12.66429063,"ECCENTRICITY":0.11576775,"INCLINATION":34.0899,"RA_OF_ASC_NODE":31.7007,"ARG_OF_PERICENTER":132.081,"MEAN_ANOMALY":238.4274,"EPHEMERIS_TYPE":0,"CLASSIFICATION_TYPE":"U","NORAD_CAT_ID":2016,"ELEMENT_SET_NO":999,"REV_AT_EPOCH":72774,"BSTAR":0.00029088113,"MEAN_MOTION_DOT":1.01e-5,"MEAN_MOTION_DDOT":0}]
